{
  "type": "FeatureCollection",
  "features": [
    {
      "type": "Feature",
      "properties": {
        "norad_id": 30379,
        "name": "FENGYUN 1C DEB",
        "group": "fengyun-1c-debris",
        "lat": -24.409758529797827,
        "lon": -1.419876062949433,
        "alt_km": 850.5562203463332,
        "timestamp": "2025-12-05T14:45:15.575000+00:00",
        "meta_object_name": "FENGYUN 1C DEB",
        "meta_object_id": "1999-025ACS",
        "meta_epoch": "2025-12-04T12:18:54.628128",
        "meta_mean_motion": 14.08021602,
        "meta_eccentricity": 0.0035629,
        "meta_inclination": 98.7586,
        "meta_ra_of_asc_node": 353.4994,
        "meta_arg_of_pericenter": 303.033,
        "meta_mean_anomaly": 211.192,
        "meta_ephemeris_type": 0,
        "meta_classification_type": "U",
        "meta_norad_cat_id": 30379,
        "meta_element_set_no": 999,
        "meta_rev_at_epoch": 96701,
        "meta_bstar": 0.00058396,
        "meta_mean_motion_dot": 9.56e-06,
        "meta_mean_motion_ddot": 0,
        "tle_line1": "1 30379U 99025ACS 25338.51313227  .00000956  00000+0  58396-3 0  9995",
        "tle_line2": "2 30379  98.7586 353.4994 0035629 303.0330 211.1920 14.08021602967014"
      },
      "geometry": {
        "type": "Point",
        "coordinates": [
          -1.419876062949433,
          -24.409758529797827
        ]
      }
    },
    {
      "type": "Feature",
      "properties": {
        "norad_id": 30380,
        "name": "FENGYUN 1C DEB",
        "group": "fengyun-1c-debris",
        "lat": 2.3514679730418275,
        "lon": 26.445660697985527,
        "alt_km": 794.2156175074078,
        "timestamp": "2025-12-05T14:45:15.575010+00:00",
        "meta_object_name": "FENGYUN 1C DEB",
        "meta_object_id": "1999-025ACT",
        "meta_epoch": "2025-12-04T15:34:02.426880",
        "meta_mean_motion": 14.50634154,
        "meta_eccentricity": 0.0177215,
        "meta_inclination": 98.9158,
        "meta_ra_of_asc_node": 25.7917,
        "meta_arg_of_pericenter": 241.8471,
        "meta_mean_anomaly": 116.4719,
        "meta_ephemeris_type": 0,
        "meta_classification_type": "U",
        "meta_norad_cat_id": 30380,
        "meta_element_set_no": 999,
        "meta_rev_at_epoch": 99448,
        "meta_bstar": 0.00052859,
        "meta_mean_motion_dot": 2.48e-05,
        "meta_mean_motion_ddot": 0,
        "tle_line1": "1 30380U 99025ACT 25338.64863920  .00002480  00000+0  52859-3 0  9993",
        "tle_line2": "2 30380  98.9158  25.7917 0177215 241.8471 116.4719 14.50634154994483"
      },
      "geometry": {
        "type": "Point",
        "coordinates": [
          26.445660697985527,
          2.3514679730418275
        ]
      }
    },
    {
      "type": "Feature",
      "properties": {
        "norad_id": 30381,
        "name": "FENGYUN 1C DEB",
        "group": "fengyun-1c-debris",
        "lat": -33.50560719496157,
        "lon": -171.1769263648575,
        "alt_km": 873.9432645942925,
        "timestamp": "2025-12-05T14:45:15.575020+00:00",
        "meta_object_name": "FENGYUN 1C DEB",
        "meta_object_id": "1999-025ACU",
        "meta_epoch": "2025-12-02T00:46:16.130496",
        "meta_mean_motion": 14.12883963,
        "meta_eccentricity": 0.00550495,
        "meta_inclination": 98.8157,
        "meta_ra_of_asc_node": 11.1932,
        "meta_arg_of_pericenter": 106.2398,
        "meta_mean_anomaly": 254.484,
        "meta_ephemeris_type": 0,
        "meta_classification_type": "U",
        "meta_norad_cat_id": 30381,
        "meta_element_set_no": 999,
        "meta_rev_at_epoch": 92015,
        "meta_bstar": 0.0012049152,
        "meta_mean_motion_dot": 2.232e-05,
        "meta_mean_motion_ddot": 0,
        "tle_line1": "1 30381U 99025ACU 25336.03213114  .00002232  00000+0  12049-2 0  9990",
        "tle_line2": "2 30381  98.8157  11.1932 0055049 106.2398 254.4840 14.12883963920153"
      },
      "geometry": {
        "type": "Point",
        "coordinates": [
          -171.1769263648575,
          -33.50560719496157
        ]
      }
    },
    {
      "type": "Feature",
      "properties": {
        "norad_id": 30382,
        "name": "FENGYUN 1C DEB",
        "group": "fengyun-1c-debris",
        "lat": -60.17252879460672,
        "lon": -176.91056026974817,
        "alt_km": 895.173468114851,
        "timestamp": "2025-12-05T14:45:15.575031+00:00",
        "meta_object_name": "FENGYUN 1C DEB",
        "meta_object_id": "1999-025ACV",
        "meta_epoch": "2025-12-04T16:15:42.935328",
        "meta_mean_motion": 14.25236697,
        "meta_eccentricity": 0.015519,
        "meta_inclination": 98.4995,
        "meta_ra_of_asc_node": 17.2997,
        "meta_arg_of_pericenter": 20.7115,
        "meta_mean_anomaly": 95.9363,
        "meta_ephemeris_type": 0,
        "meta_classification_type": "U",
        "meta_norad_cat_id": 30382,
        "meta_element_set_no": 999,
        "meta_rev_at_epoch": 97420,
        "meta_bstar": 0.0017851,
        "meta_mean_motion_dot": 4.719e-05,
        "meta_mean_motion_ddot": 0,
        "tle_line1": "1 30382U 99025ACV 25338.67758027  .00004719  00000+0  17851-2 0  9998",
        "tle_line2": "2 30382  98.4995  17.2997 0155190  20.7115  95.9363 14.25236697974206"
      },
      "geometry": {
        "type": "Point",
        "coordinates": [
          -176.91056026974817,
          -60.17252879460672
        ]
      }
    },
    {
      "type": "Feature",
      "properties": {
        "norad_id": 30385,
        "name": "FENGYUN 1C DEB",
        "group": "fengyun-1c-debris",
        "lat": -29.078861453267297,
        "lon": 174.79984882561365,
        "alt_km": 784.8260298386949,
        "timestamp": "2025-12-05T14:45:15.575041+00:00",
        "meta_object_name": "FENGYUN 1C DEB",
        "meta_object_id": "1999-025ACY",
        "meta_epoch": "2025-12-04T14:58:34.000032",
        "meta_mean_motion": 14.3876091,
        "meta_eccentricity": 0.0124947,
        "meta_inclination": 99.0826,
        "meta_ra_of_asc_node": 358.8553,
        "meta_arg_of_pericenter": 313.5819,
        "meta_mean_anomaly": 168.43,
        "meta_ephemeris_type": 0,
        "meta_classification_type": "U",
        "meta_norad_cat_id": 30385,
        "meta_element_set_no": 999,
        "meta_rev_at_epoch": 98652,
        "meta_bstar": 0.00056468,
        "meta_mean_motion_dot": 1.846e-05,
        "meta_mean_motion_ddot": 0,
        "tle_line1": "1 30385U 99025ACY 25338.62400463  .00001846  00000+0  56468-3 0  9990",
        "tle_line2": "2 30385  99.0826 358.8553 0124947 313.5819 168.4300 14.38760910986520"
      },
      "geometry": {
        "type": "Point",
        "coordinates": [
          174.79984882561365,
          -29.078861453267297
        ]
      }
    },
    {
      "type": "Feature",
      "properties": {
        "norad_id": 30386,
        "name": "FENGYUN 1C DEB",
        "group": "fengyun-1c-debris",
        "lat": -81.28496769723161,
        "lon": -38.140851455083116,
        "alt_km": 1076.8674178776646,
        "timestamp": "2025-12-05T14:45:15.575051+00:00",
        "meta_object_name": "FENGYUN 1C DEB",
        "meta_object_id": "1999-025ACZ",
        "meta_epoch": "2025-12-04T16:28:25.804128",
        "meta_mean_motion": 13.5554009,
        "meta_eccentricity": 0.030345,
        "meta_inclination": 98.6903,
        "meta_ra_of_asc_node": 234.9127,
        "meta_arg_of_pericenter": 176.783,
        "meta_mean_anomaly": 242.4235,
        "meta_ephemeris_type": 0,
        "meta_classification_type": "U",
        "meta_norad_cat_id": 30386,
        "meta_element_set_no": 999,
        "meta_rev_at_epoch": 92720,
        "meta_bstar": 0.00216,
        "meta_mean_motion_dot": 1.98e-05,
        "meta_mean_motion_ddot": 0,
        "tle_line1": "1 30386U 99025ACZ 25338.68640977  .00001980  00000+0  21600-2 0  9991",
        "tle_line2": "2 30386  98.6903 234.9127 0303450 176.7830 242.4235 13.55540090927206"
      },
      "geometry": {
        "type": "Point",
        "coordinates": [
          -38.140851455083116,
          -81.28496769723161
        ]
      }
    },
    {
      "type": "Feature",
      "properties": {
        "norad_id": 30387,
        "name": "FENGYUN 1C DEB",
        "group": "fengyun-1c-debris",
        "lat": -73.95621259896251,
        "lon": 26.88733147702886,
        "alt_km": 850.300170286162,
        "timestamp": "2025-12-05T14:45:15.575062+00:00",
        "meta_object_name": "FENGYUN 1C DEB",
        "meta_object_id": "1999-025ADA",
        "meta_epoch": "2025-12-03T12:54:51.143616",
        "meta_mean_motion": 14.15037786,
        "meta_eccentricity": 0.0001174,
        "meta_inclination": 98.6571,
        "meta_ra_of_asc_node": 352.8816,
        "meta_arg_of_pericenter": 100.1454,
        "meta_mean_anomaly": 50.5263,
        "meta_ephemeris_type": 0,
        "meta_classification_type": "U",
        "meta_norad_cat_id": 30387,
        "meta_element_set_no": 999,
        "meta_rev_at_epoch": 97194,
        "meta_bstar": 0.00037543966,
        "meta_mean_motion_dot": 6.85e-06,
        "meta_mean_motion_ddot": 0,
        "tle_line1": "1 30387U 99025ADA 25337.53809194  .00000685  00000+0  37544-3 0  9999",
        "tle_line2": "2 30387  98.6571 352.8816 0001174 100.1454  50.5263 14.15037786971943"
      },
      "geometry": {
        "type": "Point",
        "coordinates": [
          26.88733147702886,
          -73.95621259896251
        ]
      }
    }
  ]
}